{
  "links" : {
    "next" : "https://api.nasa.gov/neo/rest/v1/feed?start_date=2000-11-09&end_date=2000-11-09&detailed=true&api_key=t0TVs3DtDT2H8Oy2Zy8m2eVrNsAVKAexjcZXUckd",
    "prev" : "https://api.nasa.gov/neo/rest/v1/feed?start_date=2000-11-07&end_date=2000-11-07&detailed=true&api_key=t0TVs3DtDT2H8Oy2Zy8m2eVrNsAVKAexjcZXUckd",
    "self" : "https://api.nasa.gov/neo/rest/v1/feed?start_date=2000-11-08&end_date=2000-11-08&detailed=true&api_key=t0TVs3DtDT2H8Oy2Zy8m2eVrNsAVKAexjcZXUckd"
  },
  "element_count" : 3,
  "near_earth_objects" : {
    "2000-11-08" : [ {
      "links" : {
        "self" : "https://api.nasa.gov/neo/rest/v1/neo/3169274?api_key=t0TVs3DtDT2H8Oy2Zy8m2eVrNsAVKAexjcZXUckd"
      },
      "neo_reference_id" : "3169274",
      "name" : "(2003 XH10)",
      "nasa_jpl_url" : "http://ssd.jpl.nasa.gov/sbdb.cgi?sstr=3169274",
      "absolute_magnitude_h" : 25.5,
      "estimated_diameter" : {
        "kilometers" : {
          "estimated_diameter_min" : 0.0211132445,
          "estimated_diameter_max" : 0.0472106499
        },
        "meters" : {
          "estimated_diameter_min" : 21.113244479,
          "estimated_diameter_max" : 47.2106498806
        },
        "miles" : {
          "estimated_diameter_min" : 0.0131191578,
          "estimated_diameter_max" : 0.0293353287
        },
        "feet" : {
          "estimated_diameter_min" : 69.2691770164,
          "estimated_diameter_max" : 154.8905885541
        }
      },
      "is_potentially_hazardous_asteroid" : false,
      "close_approach_data" : [ {
        "close_approach_date" : "2000-11-08",
        "epoch_date_close_approach" : 973670400000,
        "relative_velocity" : {
          "kilometers_per_second" : "10.639627481",
          "kilometers_per_hour" : "38302.658931456",
          "miles_per_hour" : "23799.7827121594"
        },
        "miss_distance" : {
          "astronomical" : "0.2287836109",
          "lunar" : "88.9968261719",
          "kilometers" : "34225540",
          "miles" : "21266766"
        },
        "orbiting_body" : "Earth"
      } ],
      "orbital_data" : {
        "orbit_id" : "8",
        "orbit_determination_date" : "2017-04-06 09:13:26",
        "orbit_uncertainty" : "7",
        "minimum_orbit_intersection" : ".0190648",
        "jupiter_tisserand_invariant" : "4.900",
        "epoch_osculation" : "2458000.5",
        "eccentricity" : ".2437845300734803",
        "semi_major_axis" : "1.322034699895501",
        "inclination" : "9.646838922457329",
        "ascending_node_longitude" : "70.59812942891564",
        "orbital_period" : "555.2169402545517",
        "perihelion_distance" : ".9997430918406414",
        "perihelion_argument" : "12.32004949224955",
        "aphelion_distance" : "1.64432630795036",
        "perihelion_time" : "2457983.834520402820",
        "mean_anomaly" : "10.80581700593316",
        "mean_motion" : ".6483952017655475",
        "equinox" : "J2000"
      }
    }, {
      "links" : {
        "self" : "https://api.nasa.gov/neo/rest/v1/neo/3588846?api_key=t0TVs3DtDT2H8Oy2Zy8m2eVrNsAVKAexjcZXUckd"
      },
      "neo_reference_id" : "3588846",
      "name" : "(2011 WE32)",
      "nasa_jpl_url" : "http://ssd.jpl.nasa.gov/sbdb.cgi?sstr=3588846",
      "absolute_magnitude_h" : 20.6,
      "estimated_diameter" : {
        "kilometers" : {
          "estimated_diameter_min" : 0.2016299194,
          "estimated_diameter_max" : 0.4508582062
        },
        "meters" : {
          "estimated_diameter_min" : 201.6299194428,
          "estimated_diameter_max" : 450.8582061718
        },
        "miles" : {
          "estimated_diameter_min" : 0.1252869847,
          "estimated_diameter_max" : 0.2801502144
        },
        "feet" : {
          "estimated_diameter_min" : 661.5155049046,
          "estimated_diameter_max" : 1479.1936371367
        }
      },
      "is_potentially_hazardous_asteroid" : false,
      "close_approach_data" : [ {
        "close_approach_date" : "2000-11-08",
        "epoch_date_close_approach" : 973670400000,
        "relative_velocity" : {
          "kilometers_per_second" : "11.7969364571",
          "kilometers_per_hour" : "42468.9712453966",
          "miles_per_hour" : "26388.5671607854"
        },
        "miss_distance" : {
          "astronomical" : "0.4094979993",
          "lunar" : "159.2947235107",
          "kilometers" : "61260032",
          "miles" : "38065220"
        },
        "orbiting_body" : "Earth"
      } ],
      "orbital_data" : {
        "orbit_id" : "14",
        "orbit_determination_date" : "2017-04-06 08:51:55",
        "orbit_uncertainty" : "6",
        "minimum_orbit_intersection" : ".283048",
        "jupiter_tisserand_invariant" : "3.279",
        "epoch_osculation" : "2458000.5",
        "eccentricity" : ".4839600247141654",
        "semi_major_axis" : "2.382429739447407",
        "inclination" : "22.42852239451877",
        "ascending_node_longitude" : "236.476745458865",
        "orbital_period" : "1343.162565603775",
        "perihelion_distance" : "1.229428983864677",
        "perihelion_argument" : "145.8823965929953",
        "aphelion_distance" : "3.535430495030137",
        "perihelion_time" : "2458524.514652775140",
        "mean_anomaly" : "219.5514200365977",
        "mean_motion" : ".2680241463088824",
        "equinox" : "J2000"
      }
    }, {
      "links" : {
        "self" : "https://api.nasa.gov/neo/rest/v1/neo/2162741?api_key=t0TVs3DtDT2H8Oy2Zy8m2eVrNsAVKAexjcZXUckd"
      },
      "neo_reference_id" : "2162741",
      "name" : "162741 (2000 WG6)",
      "nasa_jpl_url" : "http://ssd.jpl.nasa.gov/sbdb.cgi?sstr=2162741",
      "absolute_magnitude_h" : 17.3,
      "estimated_diameter" : {
        "kilometers" : {
          "estimated_diameter_min" : 0.9216265485,
          "estimated_diameter_max" : 2.0608196123
        },
        "meters" : {
          "estimated_diameter_min" : 921.6265485028,
          "estimated_diameter_max" : 2060.8196123208
        },
        "miles" : {
          "estimated_diameter_min" : 0.5726720101,
          "estimated_diameter_max" : 1.2805335433
        },
        "feet" : {
          "estimated_diameter_min" : 3023.70924539,
          "estimated_diameter_max" : 6761.2194168867
        }
      },
      "is_potentially_hazardous_asteroid" : false,
      "close_approach_data" : [ {
        "close_approach_date" : "2000-11-08",
        "epoch_date_close_approach" : 973670400000,
        "relative_velocity" : {
          "kilometers_per_second" : "10.7343969369",
          "kilometers_per_hour" : "38643.8289730099",
          "miles_per_hour" : "24011.7725082572"
        },
        "miss_distance" : {
          "astronomical" : "0.3002367015",
          "lunar" : "116.7920761108",
          "kilometers" : "44914772",
          "miles" : "27908746"
        },
        "orbiting_body" : "Earth"
      } ],
      "orbital_data" : {
        "orbit_id" : "28",
        "orbit_determination_date" : "2017-04-06 09:26:26",
        "orbit_uncertainty" : "0",
        "minimum_orbit_intersection" : ".190514",
        "jupiter_tisserand_invariant" : "3.376",
        "epoch_osculation" : "2458000.5",
        "eccentricity" : ".4994009278615137",
        "semi_major_axis" : "2.318260437871553",
        "inclination" : "11.84733833590284",
        "ascending_node_longitude" : "60.76083337837008",
        "orbital_period" : "1289.263722669407",
        "perihelion_distance" : "1.16051902417386",
        "perihelion_argument" : "330.1144362057469",
        "aphelion_distance" : "3.476001851569245",
        "perihelion_time" : "2458309.241134807908",
        "mean_anomaly" : "273.7904785680941",
        "mean_motion" : ".2792291396011855",
        "equinox" : "J2000"
      }
    } ]
  }
}